ORBCOMM-X               
1 21576U 91050C   25298.15472225  .00000499  00000+0  16059-3 0  9995
2 21576  98.3291   2.0184 0004359 140.2457 219.9054 14.43375099800861
ORBCOMM FM01            
1 23545U 95017A   25297.89652885  .00010215  00000+0  10137-2 0  9999
2 23545  69.9606 110.3093 0001777 172.9082 187.2099 14.91976490631843
ORBCOMM FM02            
1 23546U 95017B   25298.01764803  .00012498  00000+0  11991-2 0  9993
2 23546  69.9617 128.8973 0003162 150.7336 209.3998 14.93243002631520
ORBCOMM FM08            
1 25112U 97084A   25297.85929582  .00002444  00000+0  71494-3 0  9993
2 25112  45.0118 105.1770 0007031 182.8312 177.2501 14.46309430460141
ORBCOMM FM10            
1 25113U 97084B   25297.79104876  .00002326  00000+0  68546-3 0  9991
2 25113  45.0129 108.1192 0005492 151.2267 208.8888 14.46084961635279
ORBCOMM FM11            
1 25114U 97084C   25298.16377596  .00002297  00000+0  68114-3 0  9993
2 25114  45.0116 107.2012 0006344 154.4689 205.6477 14.45821213460281
ORBCOMM FM12            
1 25115U 97084D   25297.77900895  .00002264  00000+0  67163-3 0  9991
2 25115  45.0122 108.7859 0005404 149.7990 210.3174 14.45840716460020
ORBCOMM FM09            
1 25116U 97084E   25298.16860257  .00002407  00000+0  71348-3 0  9992
2 25116  45.0127 107.9846 0006573 142.1779 217.9536 14.45702582460284
