<?xml version="1.0" encoding="UTF-8"?>
<ndm xmlns:xsi="http://www.w3.org/2001/XMLSchema-instance" xsi:noNamespaceSchemaLocation="https://sanaregistry.org/r/ndmxml_unqualified/ndmxml-2.0.0-master-2.0.xsd">
<omm id="CCSDS_OMM_VERS" version="2.0">
<header><CREATION_DATE/><ORIGINATOR/></header><body><segment><metadata><OBJECT_NAME>ORBCOMM-X</OBJECT_NAME><OBJECT_ID>1991-050C</OBJECT_ID><CENTER_NAME>EARTH</CENTER_NAME><REF_FRAME>TEME</REF_FRAME><TIME_SYSTEM>UTC</TIME_SYSTEM><MEAN_ELEMENT_THEORY>SGP4</MEAN_ELEMENT_THEORY></metadata><data><meanElements><EPOCH>2025-10-25T03:42:48.002400</EPOCH><MEAN_MOTION>14.43375099</MEAN_MOTION><ECCENTRICITY>.0004359</ECCENTRICITY><INCLINATION>98.3291</INCLINATION><RA_OF_ASC_NODE>2.0184</RA_OF_ASC_NODE><ARG_OF_PERICENTER>140.2457</ARG_OF_PERICENTER><MEAN_ANOMALY>219.9054</MEAN_ANOMALY></meanElements><tleParameters><EPHEMERIS_TYPE>0</EPHEMERIS_TYPE><CLASSIFICATION_TYPE>U</CLASSIFICATION_TYPE><NORAD_CAT_ID>21576</NORAD_CAT_ID><ELEMENT_SET_NO>999</ELEMENT_SET_NO><REV_AT_EPOCH>80086</REV_AT_EPOCH><BSTAR>.16059111E-3</BSTAR><MEAN_MOTION_DOT>.499E-5</MEAN_MOTION_DOT><MEAN_MOTION_DDOT>0</MEAN_MOTION_DDOT></tleParameters></data></segment></body></omm>
<omm id="CCSDS_OMM_VERS" version="2.0">
<header><CREATION_DATE/><ORIGINATOR/></header><body><segment><metadata><OBJECT_NAME>ORBCOMM FM01</OBJECT_NAME><OBJECT_ID>1995-017A</OBJECT_ID><CENTER_NAME>EARTH</CENTER_NAME><REF_FRAME>TEME</REF_FRAME><TIME_SYSTEM>UTC</TIME_SYSTEM><MEAN_ELEMENT_THEORY>SGP4</MEAN_ELEMENT_THEORY></metadata><data><meanElements><EPOCH>2025-10-24T21:31:00.092640</EPOCH><MEAN_MOTION>14.91976490</MEAN_MOTION><ECCENTRICITY>.0001777</ECCENTRICITY><INCLINATION>69.9606</INCLINATION><RA_OF_ASC_NODE>110.3093</RA_OF_ASC_NODE><ARG_OF_PERICENTER>172.9082</ARG_OF_PERICENTER><MEAN_ANOMALY>187.2099</MEAN_ANOMALY></meanElements><tleParameters><EPHEMERIS_TYPE>0</EPHEMERIS_TYPE><CLASSIFICATION_TYPE>U</CLASSIFICATION_TYPE><NORAD_CAT_ID>23545</NORAD_CAT_ID><ELEMENT_SET_NO>999</ELEMENT_SET_NO><REV_AT_EPOCH>63184</REV_AT_EPOCH><BSTAR>.10137E-2</BSTAR><MEAN_MOTION_DOT>.10215E-3</MEAN_MOTION_DOT><MEAN_MOTION_DDOT>0</MEAN_MOTION_DDOT></tleParameters></data></segment></body></omm>
<omm id="CCSDS_OMM_VERS" version="2.0">
<header><CREATION_DATE/><ORIGINATOR/></header><body><segment><metadata><OBJECT_NAME>ORBCOMM FM02</OBJECT_NAME><OBJECT_ID>1995-017B</OBJECT_ID><CENTER_NAME>EARTH</CENTER_NAME><REF_FRAME>TEME</REF_FRAME><TIME_SYSTEM>UTC</TIME_SYSTEM><MEAN_ELEMENT_THEORY>SGP4</MEAN_ELEMENT_THEORY></metadata><data><meanElements><EPOCH>2025-10-25T00:25:24.789792</EPOCH><MEAN_MOTION>14.93243002</MEAN_MOTION><ECCENTRICITY>.00031628</ECCENTRICITY><INCLINATION>69.9617</INCLINATION><RA_OF_ASC_NODE>128.8973</RA_OF_ASC_NODE><ARG_OF_PERICENTER>150.7336</ARG_OF_PERICENTER><MEAN_ANOMALY>209.3998</MEAN_ANOMALY></meanElements><tleParameters><EPHEMERIS_TYPE>0</EPHEMERIS_TYPE><CLASSIFICATION_TYPE>U</CLASSIFICATION_TYPE><NORAD_CAT_ID>23546</NORAD_CAT_ID><ELEMENT_SET_NO>999</ELEMENT_SET_NO><REV_AT_EPOCH>63152</REV_AT_EPOCH><BSTAR>.11991434E-2</BSTAR><MEAN_MOTION_DOT>.12498E-3</MEAN_MOTION_DOT><MEAN_MOTION_DDOT>0</MEAN_MOTION_DDOT></tleParameters></data></segment></body></omm>
<omm id="CCSDS_OMM_VERS" version="2.0">
<header><CREATION_DATE/><ORIGINATOR/></header><body><segment><metadata><OBJECT_NAME>ORBCOMM FM08</OBJECT_NAME><OBJECT_ID>1997-084A</OBJECT_ID><CENTER_NAME>EARTH</CENTER_NAME><REF_FRAME>TEME</REF_FRAME><TIME_SYSTEM>UTC</TIME_SYSTEM><MEAN_ELEMENT_THEORY>SGP4</MEAN_ELEMENT_THEORY></metadata><data><meanElements><EPOCH>2025-10-24T20:37:23.158848</EPOCH><MEAN_MOTION>14.46309430</MEAN_MOTION><ECCENTRICITY>.0007031</ECCENTRICITY><INCLINATION>45.0118</INCLINATION><RA_OF_ASC_NODE>105.1770</RA_OF_ASC_NODE><ARG_OF_PERICENTER>182.8312</ARG_OF_PERICENTER><MEAN_ANOMALY>177.2501</MEAN_ANOMALY></meanElements><tleParameters><EPHEMERIS_TYPE>0</EPHEMERIS_TYPE><CLASSIFICATION_TYPE>U</CLASSIFICATION_TYPE><NORAD_CAT_ID>25112</NORAD_CAT_ID><ELEMENT_SET_NO>999</ELEMENT_SET_NO><REV_AT_EPOCH>46014</REV_AT_EPOCH><BSTAR>.71493682E-3</BSTAR><MEAN_MOTION_DOT>.2444E-4</MEAN_MOTION_DOT><MEAN_MOTION_DDOT>0</MEAN_MOTION_DDOT></tleParameters></data></segment></body></omm>
<omm id="CCSDS_OMM_VERS" version="2.0">
<header><CREATION_DATE/><ORIGINATOR/></header><body><segment><metadata><OBJECT_NAME>ORBCOMM FM10</OBJECT_NAME><OBJECT_ID>1997-084B</OBJECT_ID><CENTER_NAME>EARTH</CENTER_NAME><REF_FRAME>TEME</REF_FRAME><TIME_SYSTEM>UTC</TIME_SYSTEM><MEAN_ELEMENT_THEORY>SGP4</MEAN_ELEMENT_THEORY></metadata><data><meanElements><EPOCH>2025-10-24T18:59:06.612864</EPOCH><MEAN_MOTION>14.46084961</MEAN_MOTION><ECCENTRICITY>.00054922</ECCENTRICITY><INCLINATION>45.0129</INCLINATION><RA_OF_ASC_NODE>108.1192</RA_OF_ASC_NODE><ARG_OF_PERICENTER>151.2267</ARG_OF_PERICENTER><MEAN_ANOMALY>208.8888</MEAN_ANOMALY></meanElements><tleParameters><EPHEMERIS_TYPE>0</EPHEMERIS_TYPE><CLASSIFICATION_TYPE>U</CLASSIFICATION_TYPE><NORAD_CAT_ID>25113</NORAD_CAT_ID><ELEMENT_SET_NO>999</ELEMENT_SET_NO><REV_AT_EPOCH>63527</REV_AT_EPOCH><BSTAR>.68546375E-3</BSTAR><MEAN_MOTION_DOT>.2326E-4</MEAN_MOTION_DOT><MEAN_MOTION_DDOT>0</MEAN_MOTION_DDOT></tleParameters></data></segment></body></omm>
<omm id="CCSDS_OMM_VERS" version="2.0">
<header><CREATION_DATE/><ORIGINATOR/></header><body><segment><metadata><OBJECT_NAME>ORBCOMM FM11</OBJECT_NAME><OBJECT_ID>1997-084C</OBJECT_ID><CENTER_NAME>EARTH</CENTER_NAME><REF_FRAME>TEME</REF_FRAME><TIME_SYSTEM>UTC</TIME_SYSTEM><MEAN_ELEMENT_THEORY>SGP4</MEAN_ELEMENT_THEORY></metadata><data><meanElements><EPOCH>2025-10-25T03:55:50.242944</EPOCH><MEAN_MOTION>14.45821213</MEAN_MOTION><ECCENTRICITY>.00063448</ECCENTRICITY><INCLINATION>45.0116</INCLINATION><RA_OF_ASC_NODE>107.2012</RA_OF_ASC_NODE><ARG_OF_PERICENTER>154.4689</ARG_OF_PERICENTER><MEAN_ANOMALY>205.6477</MEAN_ANOMALY></meanElements><tleParameters><EPHEMERIS_TYPE>0</EPHEMERIS_TYPE><CLASSIFICATION_TYPE>U</CLASSIFICATION_TYPE><NORAD_CAT_ID>25114</NORAD_CAT_ID><ELEMENT_SET_NO>999</ELEMENT_SET_NO><REV_AT_EPOCH>46028</REV_AT_EPOCH><BSTAR>.68113737E-3</BSTAR><MEAN_MOTION_DOT>.2297E-4</MEAN_MOTION_DOT><MEAN_MOTION_DDOT>0</MEAN_MOTION_DDOT></tleParameters></data></segment></body></omm>
<omm id="CCSDS_OMM_VERS" version="2.0">
<header><CREATION_DATE/><ORIGINATOR/></header><body><segment><metadata><OBJECT_NAME>ORBCOMM FM12</OBJECT_NAME><OBJECT_ID>1997-084D</OBJECT_ID><CENTER_NAME>EARTH</CENTER_NAME><REF_FRAME>TEME</REF_FRAME><TIME_SYSTEM>UTC</TIME_SYSTEM><MEAN_ELEMENT_THEORY>SGP4</MEAN_ELEMENT_THEORY></metadata><data><meanElements><EPOCH>2025-10-24T18:41:46.373280</EPOCH><MEAN_MOTION>14.45840716</MEAN_MOTION><ECCENTRICITY>.00054043</ECCENTRICITY><INCLINATION>45.0122</INCLINATION><RA_OF_ASC_NODE>108.7859</RA_OF_ASC_NODE><ARG_OF_PERICENTER>149.7990</ARG_OF_PERICENTER><MEAN_ANOMALY>210.3174</MEAN_ANOMALY></meanElements><tleParameters><EPHEMERIS_TYPE>0</EPHEMERIS_TYPE><CLASSIFICATION_TYPE>U</CLASSIFICATION_TYPE><NORAD_CAT_ID>25115</NORAD_CAT_ID><ELEMENT_SET_NO>999</ELEMENT_SET_NO><REV_AT_EPOCH>46002</REV_AT_EPOCH><BSTAR>.67163065E-3</BSTAR><MEAN_MOTION_DOT>.2264E-4</MEAN_MOTION_DOT><MEAN_MOTION_DDOT>0</MEAN_MOTION_DDOT></tleParameters></data></segment></body></omm>
<omm id="CCSDS_OMM_VERS" version="2.0">
<header><CREATION_DATE/><ORIGINATOR/></header><body><segment><metadata><OBJECT_NAME>ORBCOMM FM09</OBJECT_NAME><OBJECT_ID>1997-084E</OBJECT_ID><CENTER_NAME>EARTH</CENTER_NAME><REF_FRAME>TEME</REF_FRAME><TIME_SYSTEM>UTC</TIME_SYSTEM><MEAN_ELEMENT_THEORY>SGP4</MEAN_ELEMENT_THEORY></metadata><data><meanElements><EPOCH>2025-10-25T04:02:47.262048</EPOCH><MEAN_MOTION>14.45702582</MEAN_MOTION><ECCENTRICITY>.00065736</ECCENTRICITY><INCLINATION>45.0127</INCLINATION><RA_OF_ASC_NODE>107.9846</RA_OF_ASC_NODE><ARG_OF_PERICENTER>142.1779</ARG_OF_PERICENTER><MEAN_ANOMALY>217.9536</MEAN_ANOMALY></meanElements><tleParameters><EPHEMERIS_TYPE>0</EPHEMERIS_TYPE><CLASSIFICATION_TYPE>U</CLASSIFICATION_TYPE><NORAD_CAT_ID>25116</NORAD_CAT_ID><ELEMENT_SET_NO>999</ELEMENT_SET_NO><REV_AT_EPOCH>46028</REV_AT_EPOCH><BSTAR>.71347813E-3</BSTAR><MEAN_MOTION_DOT>.2407E-4</MEAN_MOTION_DOT><MEAN_MOTION_DDOT>0</MEAN_MOTION_DDOT></tleParameters></data></segment></body></omm>

</ndm>
